SL-16 R/B               
1 22803U 93059B   26085.83987156 -.00000133  00000+0 -41882-4 0  9994
2 22803  70.9924 334.9629 0017522 191.7134 168.3585 14.17235362681967
ARIANE 40 R/B           
1 22830U 93061H   26085.66734146  .00000199  00000+0  88589-4 0  9992
2 22830  98.4885 154.2175 0009893 229.2191 130.8135 14.32869712696532
COSMOS 2278             
1 23087U 94023A   26085.57137596 -.00000254  00000+0 -10804-3 0  9990
2 23087  71.0523 139.7812 0009069 346.5632  13.5248 14.14376287647197
SL-16 R/B               
1 23088U 94023B   26085.89304587  .00000335  00000+0  19773-3 0  9994
2 23088  71.0012  34.7560 0005448 269.3967  90.6531 14.15013863648523
SL-16 R/B               
1 23343U 94074B   26085.71642789  .00000437  00000+0  65102-4 0  9995
2 23343  97.7085 115.8430 0007138 154.4778 341.8931 14.79426449689765
SL-16 R/B               
1 23405U 94077B   26085.86793564  .00000012  00000+0  30778-4 0  9991
2 23405  70.9837 316.3514 0002066 198.0433 162.0617 14.15569135618665
ARIANE 40+ R/B          
1 23561U 95021B   26085.48594631  .00000288  00000+0  10577-3 0  9995
2 23561  98.4468 156.7386 0007978  93.1506 277.5028 14.39784191621668
SL-16 R/B               
1 23705U 95058B   26085.59308020 -.00000230  00000+0 -93377-4 0  9991
2 23705  71.0209 144.7695 0010118  94.4529 265.7750 14.15499957570242
SL-16 R/B               
1 24298U 96051B   26085.59649770  .00000085  00000+0  72555-4 0  9994
2 24298  70.7589 139.4557 0013686 120.9279 239.3188 14.12420353524034
ORBVIEW 2 (SEASTAR)     
1 24883U 97037A   26085.70392705  .00000287  00000+0  11608-3 0  9990
2 24883  98.8598 250.4692 0002517  35.9076 324.2277 14.35506458510911
SL-16 R/B               
1 25400U 98043G   26085.36028500  .00000078  00000+0  51813-4 0  9996
2 25400  98.8282  38.8447 0009328 332.1155  27.9523 14.26053525441365
SL-16 R/B               
1 25407U 98045B   26085.73697200 -.00000247  00000+0 -10055-3 0  9997
2 25407  71.0107 145.7267 0007881 341.4011  18.6823 14.16194689429514
ISS (ZARYA)             
1 25544U 98067A   26085.80952178  .00012890  00000+0  24531-3 0  9998
2 25544  51.6341 347.7277 0006206 236.0994 123.9405 15.48566257558984
CZ-4B R/B               
1 25732U 99025C   26085.37541691  .00000053  00000+0  46635-4 0  9996
2 25732  98.6593 129.2593 0036057 297.6687  72.5234 14.18268532390531
OKEAN-O                 
1 25860U 99039A   26085.61775764  .00000646  00000+0  91511-4 0  9991
2 25860  97.9407 145.3343 0000885  88.0649 272.0664 14.80361550436898
SL-16 R/B               
1 25861U 99039B   26085.58171278  .00000520  00000+0  72753-4 0  9996
2 25861  97.9930 144.6502 0014381 197.5513 162.5205 14.81753607439369
DELTA 2 R/B             
1 25876U 99041E   26085.43168604  .00000714  00000+0  15446-3 0  9998
2 25876  51.7606 234.4010 0502635  37.8096 325.7055 14.11874235365392
